#dP2023  2 27 12  0  0.00000000      96 __u+U ITR00 EXT  IAC
## 2251 129600.00000000   900.00000000 60002 0.5000000000000
+  119   C06C07C08C09C10C11C12C13C14C16C19C20C21C22C23C24C25
+        C26C27C28C29C30C32C33C34C35C36C37C38C39C40C41C42C43
+        C44C45C46E01E02E03E04E05E07E08E09E10E11E12E14E15E18
+        E19E21E24E25E26E27E30E31E33E34E36G01G02G03G04G05G06
+        G07G08G09G10G11G12G13G14G15G16G17G18G19G20G21G22G23
+        G24G25G26G27G28G29G30G31G32J02J03J04R01R02R03R04R05
+        R07R08R09R11R12R13R14R15R16R17R18R19R20R21R22R24R25
++        10 10  8  8 10 10 11  9  9 10  7  8  8  9  9  9  8
++         8 10  8  7  7  9  7  8  0  9  8 11 10  9  8  9  8
++         8  9  8  7  8  7  8  6  7  7  7  7  8  7  7  7  6
++         7  6  7  7  7  7  8  7  7  8  8  6  7  7  7  8  6
++         6  6  7  8  8  7  7  7  8  6  7  7  8  6  7  8  7
++         7  7  7  6  7  7  6  6  7  9 10 10  7  7  7  8  7
++         9  9  8  7  7  7  9  8  7  7  8  9  9  9  9  8  8
%c M  cc GPS ccc cccc cccc cccc cccc ccccc ccccc ccccc ccccc
%c cc cc ccc ccc cccc cccc cccc cccc ccccc ccccc ccccc ccccc
%f  0.0000000  0.000000000  0.00000000000  0.000000000000000
%f  0.0000000  0.000000000  0.00000000000  0.000000000000000
%i    0    0    0    0      0      0      0      0         0
%i    0    0    0    0      0      0      0      0         0
/* IAC                                ULTRA-RAPID PREDICTION
/* S/V CLOCKS ARE ALIGNED TO GNSS TIME                      
/* G:C1WC2W R:C1PC2P E:C1XC5X C:C2IC6I J:C1CC2S             
/* PCV:IGS20_2247 OL/AL:FES2004  NONE     YN ORB:CoN CLK:CoN
*  2023 02 27 13  0  0.00000000
PC06 -13153.576903  23150.561078 -32731.110069   -193.313410
PC07 -14459.192971  39328.198714   3793.219240     53.007261
PC08   1580.923836  32592.949554  26810.721962    523.326489
PC09  -3273.278263  24094.905401 -34059.770766    845.078660
PC10  -8400.981150  39809.957834  10294.815229      2.142000
PC11 -17183.418751 -10640.623084 -19167.936883    -96.998487
PC12   2870.601767 -15648.858416 -22887.126666    476.764082
PC13   5885.715588  35493.460039  22361.111166    217.718262
PC14  -9036.110803 -16273.810139  20830.306997    529.230366
PC16 -15325.400204  22123.981366 -32309.071994    151.825105
PC19  14361.014905   6397.383220 -23025.674066   -894.782198
PC20   3428.217654  22245.073279 -16460.909208    704.212574
PC21  10469.882946 -25874.397320   -571.921227   -909.529065
PC22  17583.039269 -13917.620309 -16621.837684   -611.458667
PC23 -17973.110697   2072.510567 -21249.519959   -881.812787
PC24 -11495.536044 -23994.117276   8354.713515   -357.862735
PC25 -21649.776205 -14356.030432 -10179.505210     79.087791
PC26   2986.216421 -19002.512044  20186.534923    -84.716617
PC27 -12345.812741  15515.734380  19624.457763    103.047551
PC28 -25850.897936   8253.253418   6520.907020     75.251045
PC29  24868.628390   3970.316963  12009.974026     86.732889
PC30   8294.133712  14374.501939  22424.568468      1.038072
PC32 -10336.403803  25905.966423    698.906734   -611.507526
PC33 -14387.516042  -6467.557245  23029.424052   -871.515650
PC34  -9725.353698 -13977.334937 -22124.137708    115.416221
PC35  25978.290435  -8546.773208  -5449.147077    673.322301
PC36  21212.941198  15416.540337   9572.011803   -597.475470
PC37  -4643.048211  18058.831483 -20765.079198   -812.118786
PC38  -6245.562522  28112.838949  30883.857793     61.609297
PC39 -21684.095341  21338.892991 -29248.380595     -1.968110
PC40 -21119.546587  36305.768673   1724.624957    -16.201876
PC41 -17646.121037  13304.447629  17093.669951   -662.232675
PC42  -2586.232125 -23053.188521  15576.116889   -813.951813
PC43 -24462.490659  -4632.570852 -12640.883280      9.270456
PC44  11887.364197 -16061.553334 -19476.506789     28.522879
PC45  17680.634571  -2380.790655  21456.328382    -65.775090
PC46  12797.687411  23863.907473  -6841.392729    -36.333936
PE01 -16857.177852  -8118.044622 -22940.611797   -599.641686
PE02  16889.544006   7623.211193  23077.533956     23.318456
PE03  23663.493206  -2580.995195 -17599.553517   -654.175714
PE04 -23906.809788  17425.493968   1044.820232    -67.406514
PE05   9471.282589  14160.749876 -24200.846405    -91.306730
PE07  10161.234322 -22396.731697  16483.413973    -26.081984
PE08  23926.125309 -17393.532622  -1202.951437    -42.926692
PE09 -10350.257332  22348.713614 -16406.235247   -850.999073
PE10 -11301.747703  12352.818825  24407.647044   -515.422980
PE11    342.957197  17066.985303  24173.257880   1051.532394
PE12 -20183.080955   6225.867281  20750.232255   -437.990749
PE14   9562.673737  12619.584881  18838.456399    154.089510
PE15  20389.318623  -5973.358242 -20595.067555     -3.991018
PE18  -3725.967101 -20685.462230 -23669.354248   -342.046164
PE19 -22412.923187    209.334117  19345.199546  -3131.913803
PE21 -11254.943362 -24760.766583 -11677.202592   -514.587825
PE24  -1940.268569  28478.221387  -7911.992158  -1137.345762
PE25  11078.873733  24983.207965  11381.210762   -600.268559
PE26 -19964.619710 -17473.394748 -13123.521653     30.703664
PE27   1243.431988 -28691.713414   7133.688726   -522.484912
PE30  13255.151151 -14989.002041  21790.379362  -1276.455055
PE31 -12876.154907  15696.106854 -21544.783036   -517.172351
PE33 -28057.552623  -8230.280864   4667.742077   -450.826120
PE34  28067.833936   8073.753729  -4818.460087    -32.275472
PE36  19353.454254  17564.485603  13887.999284    -18.680005
PG01 -21829.127211 -14718.045692  -5057.116092    207.982842
PG02  23776.592185  11321.676846   2851.441356   -617.963032
PG03 -12427.150562 -16539.193656  16601.818673   -357.675646
PG04 -16649.162510  -5872.189911  19886.302709    -18.366065
PG05   5519.796164  25692.731132  -3545.880049   -117.525643
PG06 -12278.931175   9736.582763  21528.307862    576.836525
PG07 -24832.067783  -5966.469318  -7718.250560    233.059634
PG08  -5975.105525 -14308.722269 -21586.626724   -110.518933
PG09 -22562.726827   4599.474444  13203.307082   -210.361825
PG10  11548.898650 -14547.704051 -18686.032094    -26.473410
PG11   1829.376948  17047.776703  20304.696071   -115.772994
PG12  10538.538815  18909.463141  15173.014708   -345.413569
PG13  -2870.484339  16975.953565 -20344.533560    482.731427
PG14 -13571.950544  11656.238624 -19584.804911    -16.950013
PG15   8296.144728  13960.562519 -21446.111093     17.123885
PG16   -779.200198 -26254.999334  -1723.238548   -518.101156
PG17 -22951.702075  13461.776334   -157.310206    702.575393
PG18  23611.984666   2833.302530 -11973.896298   -158.239998
PG19 -18236.420210  16702.899580   9076.252581    283.308914
PG20    288.671409  25454.904490   7976.532238    448.120606
PG21 -17854.174109 -15777.858155 -11972.016784    154.187457
PG22  14855.075470 -18333.894180  12457.702729    435.419077
PG23  14845.164940  -1880.020200 -21937.649549      8.053146
PG24  20149.781784  15121.285485  -9402.107528    -91.201408
PG25  14895.756558   8927.441798  19859.533645    423.591747
PG26   5702.823206 -22816.757654  11889.900117    241.780540
PG27   5712.170647 -18799.859533 -17906.227616     92.532338
PG28  13996.321966  -9437.453800  20472.080173     27.839934
PG29  21438.750387   -112.834468  15679.842737   -588.344200
PG30 -19327.432084   4869.732900 -17580.307894   -528.837160
PG31  11029.166605 -11265.429252  21257.646921   -210.359262
PG32  20926.820935 -16085.023715   1888.394752   -408.760391
PJ02 -21140.573211  27662.587777 -19198.801466     -1.031588
PJ03 -29777.727082  23660.633169  23246.624801      0.521180
PJ04 -29613.230522  28962.287545  14395.173002     94.209559
PR01  10655.298946 -22706.266912   4685.646056     23.813219
PR02  -1106.829991 -15834.755511  19992.567543    -23.219332
PR03 -12281.956903   -269.046666  22412.875891     73.250095
PR04 -16352.062574  15084.403730  12523.916122    177.419286
PR05 -11730.973391  22266.290467  -4220.073143    108.427602
PR07  12578.803747   -452.648439 -22134.127204     50.744432
PR08  16276.652347 -15309.117743 -12212.671463    -69.640853
PR09  12324.010188  22275.190620   -742.255178    106.380319
PR11  10773.136796  -3024.121925  22926.986813    -10.415279
PR12  -1151.320384 -19038.532664  16944.774351     25.296438
PR13 -11344.343574 -22700.802335   2532.479906    -32.476943
PR14 -15697.035536 -12834.785354 -15482.133741     24.365377
PR15 -10333.460356   4101.846187 -22945.722390     90.784356
PR16   1170.011932  18767.718627 -17218.920601     11.766037
PR17 -24261.665948  -3931.044393  -6757.075671    608.468297
PR18 -23272.262482   3433.908268   9952.898611     68.918544
PR19 -11802.146037   8470.919815  20969.943185   -223.427399
PR20  10602.253579  10081.176953  20891.132676    -88.460699
PR21  24779.193774   3336.623550   5102.138181   -376.525194
PR22  22961.142348  -3154.955922 -10604.118132     72.740147
PR24 -11598.691857 -10037.327025 -20360.232257    149.903798
PR25  23954.958928   5300.879842   7014.458692     56.278615
EOF
